[{"OBJECT_NAME":"CS1","OBJECT_ID":"2021-088B","EPOCH":"2026-03-09T18:02:30.253920","MEAN_MOTION":15.31848439,"ECCENTRICITY":0.00141292,"INCLINATION":97.3882,"RA_OF_ASC_NODE":132.1684,"ARG_OF_PERICENTER":78.0335,"MEAN_ANOMALY":282.249,"EPHEMERIS_TYPE":0,"CLASSIFICATION_TYPE":"U","NORAD_CAT_ID":49261,"ELEMENT_SET_NO":999,"REV_AT_EPOCH":24518,"BSTAR":0.00051175576,"MEAN_MOTION_DOT":0.00015722,"MEAN_MOTION_DDOT":0},{"OBJECT_NAME":"STARLINK-30558","OBJECT_ID":"2023-158K","EPOCH":"2026-03-09T22:18:10.395936","MEAN_MOTION":15.27260686,"ECCENTRICITY":0.00012044,"INCLINATION":43.0041,"RA_OF_ASC_NODE":25.9333,"ARG_OF_PERICENTER":261.9473,"MEAN_ANOMALY":98.1242,"EPHEMERIS_TYPE":0,"CLASSIFICATION_TYPE":"U","NORAD_CAT_ID":58060,"ELEMENT_SET_NO":999,"REV_AT_EPOCH":13360,"BSTAR":0.0022219006,"MEAN_MOTION_DOT":0.00060789,"MEAN_MOTION_DDOT":0}]
